NORAD_CAT_ID,OBJECT_NAME,OBJECT_TYPE,EPOCH,MEAN_MOTION,ECCENTRICITY,INCLINATION,RA_OF_ASC_NODE,ARG_OF_PERICENTER,MEAN_ANOMALY,BSTAR,MEAN_MOTION_DOT,MEAN_MOTION_DDOT,TLE_LINE0,TLE_LINE1,TLE_LINE2,SEMIMAJOR_AXIS,PERIOD,APOGEE,PERIGEE,DECAYED
53144.0,STARLINK-4100,PAYLOAD,2024-01-31 06:25:34,15.08817647,0.0001807,53.2189,23.7099,103.9949,256.1244,0.0003991,6.066e-05,0.0,0 STARLINK-4100,1 53144U 22083N   24031.26775718  .00006066  00000-0  39910-3 0  9998,2 53144  53.2189  23.7099 0001807 103.9949 256.1244 15.08817647 85844,6917.949,95.439,541.064,538.564,0.0
53144.0,STARLINK-4100,PAYLOAD,2024-02-01 09:27:08,15.08832064,0.0001755,53.2198,18.6559,102.0472,258.0716,-3.7108e-05,-8.78e-06,0.0,0 STARLINK-4100,1 53144U 22083N   24032.39384643 -.00000878  00000-0 -37108-4 0  9991,2 53144  53.2198  18.6559 0001755 102.0472 258.0716 15.08832064 86016,6917.905,95.438,540.984,538.556,0.0
53144.0,STARLINK-4100,PAYLOAD,2024-02-02 04:31:45,15.08840501,0.0001799,53.22,15.0892,108.3023,251.8165,1.2931e-05,-8.2e-07,0.0,0 STARLINK-4100,1 53144U 22083N   24033.18872130 -.00000082  00000-0  12931-4 0  9995,2 53144  53.2200  15.0892 0001799 108.3023 251.8165 15.08840501 86137,6917.879,95.438,540.988,538.499,0.0
53144.0,STARLINK-4100,PAYLOAD,2024-02-02 07:42:31,15.08846019,0.00015,53.2184,14.492,97.9911,262.1252,4.824e-05,4.8e-06,0.0,0 STARLINK-4100,1 53144U 22083N   24033.32119688  .00000480  00000-0  48240-4 0  9996,2 53144  53.2184  14.4920 0001500  97.9911 262.1252 15.08846019 85526,6917.862,95.437,540.765,538.689,0.0
53144.0,STARLINK-4100,PAYLOAD,2024-02-03 04:22:32,15.08836379,0.0001679,53.2197,10.6277,84.6989,275.4195,7.8595e-05,9.63e-06,0.0,0 STARLINK-4100,1 53144U 22083N   24034.18232421  .00000963  00000-0  78595-4 0  9994,2 53144  53.2197  10.6277 0001679  84.6989 275.4195 15.08836379 86283,6917.891,95.438,540.918,538.595,0.0
53144.0,STARLINK-4100,PAYLOAD,2024-02-03 07:33:18,15.08841725,0.0001635,53.2194,10.0308,88.3593,271.7587,0.00012361,1.68e-05,0.0,0 STARLINK-4100,1 53144U 22083N   24034.31479940  .00001680  00000-0  12361-3 0  9993,2 53144  53.2194  10.0308 0001635  88.3593 271.7587 15.08841725 85670,6917.875,95.437,540.871,538.609,0.0
53144.0,STARLINK-4100,PAYLOAD,2024-02-04 04:13:19,15.0884094,0.0001476,53.2184,6.1644,101.3504,258.7654,-3.3178e-05,-8.16e-06,0.0,0 STARLINK-4100,1 53144U 22083N   24035.17592401 -.00000816  00000-0 -33178-4 0  9998,2 53144  53.2184   6.1644 0001476 101.3504 258.7654 15.08840940 86432,6917.878,95.437,540.764,538.721,0.0
53144.0,STARLINK-4100,PAYLOAD,2024-02-04 07:24:05,15.08848114,0.0001476,53.2184,5.5692,97.1314,262.9846,3.2161e-05,2.24e-06,0.0,0 STARLINK-4100,1 53144U 22083N   24035.30839711  .00000224  00000-0  32161-4 0  9993,2 53144  53.2184   5.5692 0001476  97.1314 262.9846 15.08848114 86452,6917.856,95.437,540.742,538.7,0.0
53144.0,STARLINK-4100,PAYLOAD,2024-02-04 21:42:34,15.08841121,0.0001371,53.2185,2.8941,115.1268,244.9866,-2.9242e-05,-7.53e-06,0.0,0 STARLINK-4100,1 53144U 22083N   24035.90456221 -.00000753  00000-0 -29242-4 0  9995,2 53144  53.2185   2.8941 0001371 115.1268 244.9866 15.08841121 85916,6917.877,95.437,540.69,538.794,0.0
53144.0,STARLINK-4100,PAYLOAD,2024-02-05 07:14:52,15.08852108,0.0001738,53.2191,1.1105,108.2083,251.9099,4.0108e-05,3.5e-06,0.0,0 STARLINK-4100,1 53144U 22083N   24036.30199168  .00000350  00000-0  40108-4 0  9999,2 53144  53.2191   1.1105 0001738 108.2083 251.9099 15.08852108 85971,6917.843,95.437,540.911,538.506,0.0
53144.0,STARLINK-4100,PAYLOAD,2024-02-06 03:54:53,15.08843668,0.0001566,53.2189,357.2473,98.7242,261.3927,-4.9526e-05,-1.076e-05,0.0,0 STARLINK-4100,1 53144U 22083N   24037.16312107 -.00001076  00000-0 -49526-4 0  9995,2 53144  53.2189 357.2473 0001566  98.7242 261.3927 15.08843668 86731,6917.869,95.437,540.818,538.651,0.0
53144.0,STARLINK-4100,PAYLOAD,2024-02-07 13:17:59,15.08845857,0.0001522,53.2193,351.0032,95.3069,264.8097,-4.5844e-05,-1.018e-05,0.0,0 STARLINK-4100,1 53144U 22083N   24038.55415866 -.00001018  00000-0 -45844-4 0  9990,2 53144  53.2193 351.0032 0001522  95.3069 264.8097 15.08845857 86313,6917.862,95.437,540.78,538.675,0.0
53144.0,STARLINK-4100,PAYLOAD,2024-02-07 21:14:55,15.08834547,0.0001952,53.2201,349.5228,111.6801,248.4399,4.0442e-06,-2.24e-06,0.0,0 STARLINK-4100,1 53144U 22083N   24038.88536773 -.00000224  00000-0  40442-5 0  9994,2 53144  53.2201 349.5228 0001952 111.6801 248.4399 15.08834547 86367,6917.897,95.438,541.112,538.412,0.0
53144.0,STARLINK-4100,PAYLOAD,2024-02-08 02:01:05,15.08836566,0.000186,53.22,348.634,122.1231,237.9942,-2.5711e-05,-6.97e-06,0.0,0 STARLINK-4100,1 53144U 22083N   24039.08408767 -.00000697  00000-0 -25711-4 0  9994,2 53144  53.2200 348.6340 0001860 122.1231 237.9942 15.08836566 87027,6917.891,95.438,541.043,538.469,0.0
53144.0,STARLINK-4100,PAYLOAD,2024-02-08 06:47:14,15.08837808,0.000159,53.2188,347.7294,112.6597,247.4564,2.6541e-05,1.34e-06,0.0,0 STARLINK-4100,1 53144U 22083N   24039.28280534  .00000134  00000-0  26541-4 0  9992,2 53144  53.2188 347.7294 0001590 112.6597 247.4564 15.08837808 86428,6917.887,95.438,540.852,538.652,0.0
53144.0,STARLINK-4100,PAYLOAD,2024-02-09 03:27:15,15.08845317,0.0001433,53.2184,343.8622,107.6592,252.4556,9.2741e-06,-1.4e-06,0.0,0 STARLINK-4100,1 53144U 22083N   24040.14392392 -.00000140  00000-0  92741-5 0  9999,2 53144  53.2184 343.8622 0001433 107.6592 252.4556 15.08845317 87186,6917.864,95.437,540.72,538.738,0.0
53144.0,STARLINK-4100,PAYLOAD,2024-02-09 06:38:00,15.08852415,0.0001263,53.2182,343.2695,87.6973,272.4164,0.00011266,1.506e-05,0.0,0 STARLINK-4100,1 53144U 22083N   24040.27639678  .00001506  00000-0  11266-3 0  9991,2 53144  53.2182 343.2695 0001263  87.6973 272.4164 15.08852415 87206,6917.842,95.437,540.581,538.834,0.0
53144.0,STARLINK-4100,PAYLOAD,2024-02-10 03:18:03,15.08833746,0.0001576,53.2174,339.399,69.8756,290.2405,4.6365e-05,4.5e-06,0.0,0 STARLINK-4100,1 53144U 22083N   24041.13753534  .00000450  00000-0  46365-4 0  9991,2 53144  53.2174 339.3990 0001576  69.8756 290.2405 15.08833746 87335,6917.9,95.438,540.855,538.674,0.0
53144.0,STARLINK-4100,PAYLOAD,2024-02-10 04:53:25,15.08836261,0.0001437,53.2177,339.099,75.1797,284.9354,9.4984e-05,1.224e-05,0.0,0 STARLINK-4100,1 53144U 22083N   24041.20377141  .00001224  00000-0  94984-4 0  9995,2 53144  53.2177 339.0990 0001437  75.1797 284.9354 15.08836261 86715,6917.892,95.438,540.751,538.763,0.0
53144.0,STARLINK-4100,PAYLOAD,2024-02-11 03:08:49,15.08849392,0.0001712,53.2187,334.9433,68.5025,291.6149,2.0599e-06,-2.55e-06,0.0,0 STARLINK-4100,1 53144U 22083N   24042.13112918 -.00000255  00000-0  20599-5 0  9993,2 53144  53.2187 334.9433 0001712  68.5025 291.6149 15.08849392 87489,6917.852,95.437,540.901,538.532,0.0
53144.0,STARLINK-4100,PAYLOAD,2024-02-11 04:44:12,15.08852099,0.0001565,53.2185,334.6435,80.4172,279.6997,5.324e-05,5.6e-06,0.0,0 STARLINK-4100,1 53144U 22083N   24042.19736454  .00000560  00000-0  53240-4 0  9992,2 53144  53.2185 334.6435 0001565  80.4172 279.6997 15.08852099 86864,6917.843,95.437,540.791,538.626,0.0
53144.0,STARLINK-4100,PAYLOAD,2024-02-12 04:34:58,15.088513,0.0001826,53.2205,330.1726,99.0929,261.027,0.00012203,1.655e-05,0.0,0 STARLINK-4100,1 53144U 22083N   24043.19096058  .00001655  00000-0  12203-3 0  9991,2 53144  53.2205 330.1726 0001826  99.0929 261.0270 15.08851300 87647,6917.846,95.437,540.974,538.448,0.0
53144.0,STARLINK-4100,PAYLOAD,2024-02-12 18:53:28,15.08839457,0.0001543,53.2182,327.5047,94.878,265.2388,-7.5479e-05,-1.489e-05,0.0,0 STARLINK-4100,1 53144U 22083N   24043.78713524 -.00001489  00000-0 -75479-4 0  9992,2 53144  53.2182 327.5047 0001543  94.8780 265.2388 15.08839457 87736,6917.882,95.438,540.814,538.68,0.0
53144.0,STARLINK-4100,PAYLOAD,2024-02-13 04:25:46,15.08848802,0.0001529,53.2178,325.7239,99.6945,260.422,-2.094e-05,-6.21e-06,0.0,0 STARLINK-4100,1 53144U 22083N   24044.18456544 -.00000621  00000-0 -20940-4 0  9993,2 53144  53.2178 325.7239 0001529  99.6945 260.4220 15.08848802 87796,6917.853,95.437,540.776,538.661,0.0
53144.0,STARLINK-4100,PAYLOAD,2024-02-13 18:44:15,15.08841523,0.0001627,53.2181,323.0415,112.0042,248.1123,-0.0001187,-2.177e-05,0.0,0 STARLINK-4100,1 53144U 22083N   24044.78073424 -.00002177  00000-0 -11870-3 0  9990,2 53144  53.2181 323.0415 0001627 112.0042 248.1123 15.08841523 87882,6917.876,95.437,540.866,538.615,0.0
53144.0,STARLINK-4100,PAYLOAD,2024-02-13 21:55:01,15.08847796,0.0001709,53.216,322.4522,123.6875,236.4281,-0.00011461,-2.112e-05,0.0,0 STARLINK-4100,1 53144U 22083N   24044.91320899 -.00002112  00000-0 -11461-3 0  9991,2 53144  53.2160 322.4522 0001709 123.6875 236.4281 15.08847796 87270,6917.857,95.437,540.904,538.539,0.0
53144.0,STARLINK-4100,PAYLOAD,2024-02-14 04:16:33,15.08852357,0.0001349,53.217,321.2637,108.4901,251.6238,-5.8479e-05,-1.219e-05,0.0,0 STARLINK-4100,1 53144U 22083N   24045.17816438 -.00001219  00000-0 -58479-4 0  9997,2 53144  53.2170 321.2637 0001349 108.4901 251.6238 15.08852357 87940,6917.843,95.437,540.641,538.774,0.0
53144.0,STARLINK-4100,PAYLOAD,2024-02-14 21:45:46,15.08864361,0.000125,53.2174,317.9945,101.9874,258.1258,0.00024848,3.671e-05,0.0,0 STARLINK-4100,1 53144U 22083N   24045.90678334  .00003671  00000-0  24848-3 0  9993,2 53144  53.2174 317.9945 0001250 101.9874 258.1258 15.08864361 87421,6917.806,95.436,540.536,538.806,0.0
53144.0,STARLINK-4100,PAYLOAD,2024-02-14 23:21:08,15.08867292,0.0001557,53.2177,317.6947,99.8696,260.2472,0.00023254,3.418e-05,0.0,0 STARLINK-4100,1 53144U 22083N   24045.97302067  .00003418  00000-0  23254-3 0  9996,2 53144  53.2177 317.6947 0001557  99.8696 260.2472 15.08867292 88069,6917.797,95.436,540.739,538.585,0.0
53144.0,STARLINK-4100,PAYLOAD,2024-02-15 18:25:51,15.08813958,0.0001164,53.218,314.1282,88.3586,271.7539,-0.00019448,-3.379e-05,0.0,0 STARLINK-4100,1 53144U 22083N   24046.76795482 -.00003379  00000-0 -19448-3 0  9999,2 53144  53.2180 314.1282 0001164  88.3586 271.7539 15.08813958 88186,6917.96,95.439,540.63,539.02,0.0
